#dP2018  7 22  0  0  0.00000000      96 __u+U IGS08 FIT  IAC
## 2011      0.00000000   900.00000000 58321 0.0000000000000
+   85   C01C02C03C04C05C06C07C08C09C10C11C12C13C14E01E02E03
+        E04E05E07E08E09E11E12E14E18E19E24E26E30G01G02G03G05
+        G06G07G08G09G10G11G12G13G14G15G16G17G18G19G20G21G22
+        G23G24G25G26G27G28G29G30G31G32J01R01R02R03R04R05R07
+        R08R09R10R11R13R14R15R16R17R18R19R20R21R22R23R24R26
++        13 12 12 12 13  8  8  8  7  8  7  7  8  7  7  7  7
++         7  7  7  7  7  7  7  7  7  7  7  7  7  3  3  3  3
++         3  3  3  3  3  3  3  3  3  3  3  3  3  3  3  3  3
++         3  3  3  3  3  3  3  3  3  3  9  5  5  5  5  6  5
++         5  5  5  5  5  5  5  5  5  5  5  5  5  7  5  5  8
%c M  cc GPS ccc cccc cccc cccc cccc ccccc ccccc ccccc ccccc
%c cc cc ccc ccc cccc cccc cccc cccc ccccc ccccc ccccc ccccc
%f  1.2500000  1.025000000  0.00000000000  0.000000000000000
%f  0.0000000  0.000000000  0.00000000000  0.000000000000000
%i    0    0    0    0      0      0      0      0         0
%i    0    0    0    0      0      0      0      0         0
/* INFORMATION & ANALYSIS CENTER (IAC)            FINAL DATA
/* S/V CLOCKS ARE ALIGNED TO GPS & GLONASS TIME RESPECTIVELY
/* USING THE BROADCAST EPHEMERIS                            
/* PCV:IGS14_2000 OL/AL:FES2004  NONE     YN ORB:CoN CLK:CoN
*  2018 07 22 23 15  0.00000000
PC01 -32261.416384  27128.755246    982.680827    373.865980
PC02   4395.790750  41920.374532  -1327.303346    -49.717317
PC03 -14817.323756  39451.749376    330.103493   -192.884975
PC04 -39624.399206  14426.232856    394.851984   -258.988397
PC05  21810.387282  36057.106408  -1075.638902    283.334670
PC06  -8614.639480  35736.776049 -20090.679124    114.775226
PC07 -15701.959138  21391.203861  32821.063970     56.078029
PC08 -24638.647726  31733.378218 -13142.638189    450.369255
PC09   -297.087453  41231.592798  -7769.929725     73.526187
PC10   1561.133399  26612.199509  32849.385286   -407.168760
PC11   5015.870615  20441.050276 -18312.565117   -602.858339
PC12  -8707.056179  26492.119878  -1935.689230    526.811848
PC13 -13874.127100  32685.812147 -22919.745850   -190.545169
PC14  14741.525914  23154.632521  -4820.735835    280.155912
PE01   9590.318806 -14134.063054 -24176.079612   -396.482533
PE02  -9536.466315  14151.473578  24185.668068     20.547649
PE03  -4138.610703  24416.594903 -16213.791005    -57.388390
PE04  -9927.741339 -27865.706871  -1057.084354    -80.752148
PE05 -15867.360492   6625.364008 -24084.239564    224.228623
PE07  18278.783807  14972.433996  17849.633969     -6.777992
PE08  10207.941991  27770.531580   1095.013919   6538.735159
PE09 -18294.503175 -14863.895615 -17881.014756   6727.408460
PE11 -17884.622837  -3348.651653  23333.808962   2764.912895
PE12  -1851.901937 -20019.868328  21728.560947   4660.804883
PE14  -7316.798218 -20574.367911  12617.404557   6547.179149
PE18  16767.640702  13901.199027 -22901.128297   6039.368116
PE19   5319.800490 -23212.863807  17592.363904    -13.880611
PE24 -27589.687950  -9340.833153  -5294.106887   6586.889846
PE26  23122.134859 -14574.502733 -11361.904303   5679.414008
PE30  12791.530443  16661.970612  20848.846911   5656.732853
PG01  -2797.322974  16684.210304 -20555.630336    -68.490184
PG02  20598.917985 -15705.870554   5837.631738     50.314939
PG03   7688.576043  19459.203261 -16424.833812    109.867155
PG05  13014.478237  -9456.841685  21057.406780     -4.222423
PG06  24603.445003  -4878.455227  -8745.137310    384.448913
PG07  13881.338294   9810.226538  20744.495657    154.454951
PG08  -5784.489056  25245.712861   5546.913366   -109.077626
PG09   8628.710565  20604.867697  14329.905306    513.160132
PG10 -23496.700365  -9543.062975  -8125.292935    188.522533
PG11  -4327.293524  22317.435189 -14434.731584   -728.787423
PG12  -2056.866307 -18206.306496 -19487.147913    319.200482
PG13  12475.726408 -20333.252730  11563.261321    -92.079757
PG14 -15450.379643   6809.425414 -20154.373798    -97.647128
PG15   1974.490727 -26139.778709   2448.392633   -350.200535
PG16 -14254.683641   6487.722066  21361.949064     16.706530
PG17  14072.739202   4112.659359 -21765.353398    -75.408735
PG18 -11390.457272  18466.489956 -15670.619559     36.824746
PG19  15501.128747  -6222.256545 -20986.988166   -418.175222
PG20 -22556.581459 -13982.513363   1830.277503    512.862302
PG21 -17101.124575  -7187.788687  19798.086545   -363.678509
PG22   -485.829210  17306.913104 -19907.690082   -466.115611
PG23   1868.745361  25796.996013   5245.357778   -214.071912
PG24   6390.420300 -18230.977609 -18219.102943    -52.928817
PG25 -15771.920337 -19287.214558  -9712.127305   -620.183960
PG26 -21159.912738   -547.210339  16116.370483    -75.351824
PG27 -11969.995992  17805.734287  15398.649457    359.311672
PG28  21869.370849  13758.989174  -5409.150596    733.105616
PG29  -5606.453707 -22229.905120  13389.370961    409.927369
PG30  21861.263173   2870.404688  14946.012185     47.250965
PG31 -25289.773685   5755.611563  -6639.388998    105.895902
PG32 -15006.139391  -3420.417372 -21608.060210   -469.374901
PJ01 -21169.415236  20370.495517 -25613.944039   -170.042293
PR01    500.577829 -17433.006665  18614.366614     29.452384
PR02 -11649.877602 -22688.151336   1280.112351    320.990597
PR03 -15543.917446 -13216.240596 -15292.686259    138.406320
PR04 -10073.089890   4437.094512 -22990.255332    269.508834
PR05   1247.857720  18945.343878 -17044.262850    -44.323551
PR07  15514.425593  12745.622347  15750.266153    -43.041856
PR08  10441.276411  -3791.065098  23018.204465     22.157733
PR09  12013.054938  10133.784926  20129.149779     19.448513
PR10  24179.024981   4163.720712   7125.099566     28.375864
PR11  22704.925092  -4441.127677 -10787.189069    -35.409160
PR13 -11914.114009  -9737.301524 -20355.900849    -12.794009
PR14 -24079.446974  -4187.558221  -7252.310530     29.309411
PR15 -24479.518784   2351.676217   6956.760270    -13.522359
PR16  -8758.197257  10223.812119  21668.253674     97.554754
PR17 -11119.127997  -2090.219562  22866.886686    150.024330
PR18 -16102.626245  13704.661065  14229.613921    203.947485
PR19 -12779.647320  21929.199324  -2558.530108    -56.870438
PR20   -883.233097  17071.470038 -18912.857787   -346.079478
PR21  11218.341257   1723.873486 -22846.936125      5.866050
PR22  16209.317491 -15388.942383 -12413.260141    -56.542341
PR23  10370.053348 -22355.594480   6574.916442    167.376320
PR24   -153.622694 -16467.553329  19453.923636   -169.208150
PR26  -1290.489992  17796.083925 -18233.385678     35.823567
EOF
